[{"OBJECT_NAME":"STARLINK-3613","OBJECT_ID":"2022-017AU","EPOCH":"2026-03-09T22:25:49.149696","MEAN_MOTION":15.08832475,"ECCENTRICITY":0.00011341,"INCLINATION":53.2191,"RA_OF_ASC_NODE":328.2409,"ARG_OF_PERICENTER":93.9531,"MEAN_ANOMALY":266.1591,"EPHEMERIS_TYPE":0,"CLASSIFICATION_TYPE":"U","NORAD_CAT_ID":51810,"ELEMENT_SET_NO":999,"REV_AT_EPOCH":22411,"BSTAR":-2.117913e-6,"MEAN_MOTION_DOT":-3.21e-6,"MEAN_MOTION_DDOT":0},{"OBJECT_NAME":"OBJECT BE","OBJECT_ID":"2018-099BE","EPOCH":"2026-03-09T15:10:24.322944","MEAN_MOTION":15.09972337,"ECCENTRICITY":0.0006427,"INCLINATION":97.4031,"RA_OF_ASC_NODE":111.7891,"ARG_OF_PERICENTER":340.4925,"MEAN_ANOMALY":19.6058,"EPHEMERIS_TYPE":0,"CLASSIFICATION_TYPE":"U","NORAD_CAT_ID":43810,"ELEMENT_SET_NO":999,"REV_AT_EPOCH":39698,"BSTAR":0.00027209,"MEAN_MOTION_DOT":4.358e-5,"MEAN_MOTION_DDOT":0}]
